FENGYUN 1C DEB          
1 36676U 99025DYW 17344.55368234  .00000206  00000-0  80913-4 0  9991
2 36676  98.7885 109.5674 0107118 134.5289 288.0074 14.36574288230335
